[
    {
        "Altitude(m)": 576502.8335251054,
        "Argument of Periapsis(deg)": -0.037671934638287344,
        "Eccentricity": 0.0,
        "Inclination(deg)": 97.0,
        "Latitude(deg)": -34.53117126813777,
        "Longitude(deg)": 131.25146026472711,
        "Mean Anomaly(deg)": 214.59263878197916,
        "RAAN(deg)": 60.00991175603085,
        "Satellite Name": "Starlink Shell 3 1725",
        "Satellite Number": 1725,
        "Semi-Major Axis(m)": 6938478.169268562,
        "Time(s)": 950
    },
    {
        "Altitude(m)": 576753.178118495,
        "Argument of Periapsis(deg)": -0.03806848131869037,
        "Eccentricity": 0.0,
        "Inclination(deg)": 97.0,
        "Latitude(deg)": -35.14995636063255,
        "Longitude(deg)": 131.09719816811267,
        "Mean Anomaly(deg)": 215.2181149796842,
        "RAAN(deg)": 60.01001609030486,
        "Satellite Name": "Starlink Shell 3 1725",
        "Satellite Number": 1725,
        "Semi-Major Axis(m)": 6938478.169268562,
        "Time(s)": 960
    },
    {
        "Altitude(m)": 577004.4073499934,
        "Argument of Periapsis(deg)": -0.0384650279990934,
        "Eccentricity": 0.0,
        "Inclination(deg)": 97.0,
        "Latitude(deg)": -35.76854368331127,
        "Longitude(deg)": 130.94122785898975,
        "Mean Anomaly(deg)": 215.84359117738924,
        "RAAN(deg)": 60.01012042457886,
        "Satellite Name": "Starlink Shell 3 1725",
        "Satellite Number": 1725,
        "Semi-Major Axis(m)": 6938478.169268562,
        "Time(s)": 970
    },
    {
        "Altitude(m)": 577256.4248478924,
        "Argument of Periapsis(deg)": -0.03886157467949641,
        "Eccentricity": 0.0,
        "Inclination(deg)": 97.0,
        "Latitude(deg)": -36.38692869452327,
        "Longitude(deg)": 130.78348313863432,
        "Mean Anomaly(deg)": 216.46906737509428,
        "RAAN(deg)": 60.01022475885287,
        "Satellite Name": "Starlink Shell 3 1725",
        "Satellite Number": 1725,
        "Semi-Major Axis(m)": 6938478.169268562,
        "Time(s)": 980
    },
    {
        "Altitude(m)": 577509.13371972,
        "Argument of Periapsis(deg)": -0.03925812135989944,
        "Eccentricity": 0.0,
        "Inclination(deg)": 97.0,
        "Latitude(deg)": -37.00510671566911,
        "Longitude(deg)": 130.6238954489059,
        "Mean Anomaly(deg)": 217.09454357279932,
        "RAAN(deg)": 60.010329093126884,
        "Satellite Name": "Starlink Shell 3 1725",
        "Satellite Number": 1725,
        "Semi-Major Axis(m)": 6938478.169268562,
        "Time(s)": 990
    }
]